STARLINK-37127          
1 68236U 26054E   26086.83335647 -.01378843  00000+0 -96353-2 0  9996
2 68236  53.1592 221.7371 0001033  71.6775 277.3799 15.76329378  2912
STARLINK-37095          
1 68237U 26054F   26086.83335647 -.01900566  00000+0 -11445-1 0  9998
2 68237  53.1590 221.7037 0001064  58.9045 306.4943 15.80080831  2831
STARLINK-37097          
1 68238U 26054G   26086.83335647 -.00016688  00000+0 -81157-4 0  9991
2 68238  53.1585 221.6945 0001179  37.5362 332.3831 15.80876674  2837
STARLINK-37096          
1 68239U 26054H   26086.83335647 -.00083279  00000+0 -42189-3 0  9993
2 68239  53.1587 221.6768 0000935  56.3573 322.1107 15.80902259  2837
STARLINK-37092          
1 68240U 26054J   26086.83335647  .00031371  00000+0  16200-3 0  9994
2 68240  53.1589 221.6856 0000781  87.1152 287.0898 15.80859621  2833
STARLINK-37094          
1 68241U 26054K   26086.83335647  .00121151  00000+0  61041-3 0  9994
2 68241  53.1588 221.6680 0000959  87.3104 295.4629 15.80814564  2825
STARLINK-36356          
1 68242U 26054L   26086.83335647 -.00052423  00000+0 -26362-3 0  9999
2 68242  53.1589 221.6589 0000906  77.7393 309.2903 15.80877578  2878
STARLINK-36345          
1 68243U 26054M   26086.83335647 -.01878185  00000+0 -11082-1 0  9993
2 68243  53.1589 221.6503 0000882  87.9897 303.2404 15.80482546  2877
STARLINK-36310          
1 68244U 26054N   26086.83335647 -.00063257  00000+0 -31926-3 0  9990
2 68244  53.1590 221.6324 0001276  86.7468 313.1012 15.80874851  2879
STARLINK-36247          
1 68245U 26054P   26086.83335647  .00024648  00000+0  12812-3 0  9993
2 68245  53.1593 221.6416 0001068 108.1879 287.3721 15.80862642  2873
STARLINK-37043          
1 68246U 26054Q   26086.83335647 -.00005041  00000+0 -22020-4 0  9995
2 68246  53.1592 221.6240 0001016  65.0559 339.0515 15.80869686  2834
STARLINK-37044          
1 68247U 26054R   26086.83335647  .00018007  00000+0  94699-4 0  9991
2 68247  53.1592 221.6146 0001175  61.5932 346.8019 15.80845934  2837
STARLINK-36997          
1 68248U 26054S   26086.83335647 -.01623655  00000+0 -92823-2 0  9991
2 68248  53.1592 221.6061 0001385  74.2675 338.3628 15.81207425  2832
STARLINK-37141          
1 68249U 26054T   26086.83335647 -.00051419  00000+0 -25827-3 0  9995
2 68249  53.1591 221.5975 0000792  50.6226   6.2839 15.80894916  2916
STARLINK-37087          
1 68250U 26054U   26086.83335647  .00045407  00000+0  23277-3 0  9992
2 68250  53.1594 221.5888 0000956  99.2638 321.9474 15.80837117  2835
STARLINK-36274          
1 68251U 26054V   26086.83335647  .00011639  00000+0  62490-4 0  9994
2 68251  53.1591 221.5799 0001012  82.8504 342.6269 15.80851581  2875
