[{"OBJECT_NAME":"STARLINK-37127","OBJECT_ID":"2026-054E","EPOCH":"2026-03-27T20:00:01.999008","MEAN_MOTION":15.76329378,"ECCENTRICITY":0.0001033,"INCLINATION":53.1592,"RA_OF_ASC_NODE":221.7371,"ARG_OF_PERICENTER":71.6775,"MEAN_ANOMALY":277.3799,"EPHEMERIS_TYPE":0,"CLASSIFICATION_TYPE":"U","NORAD_CAT_ID":68236,"ELEMENT_SET_NO":999,"REV_AT_EPOCH":291,"BSTAR":-0.0096353,"MEAN_MOTION_DOT":-0.01378843,"MEAN_MOTION_DDOT":0},{"OBJECT_NAME":"STARLINK-37095","OBJECT_ID":"2026-054F","EPOCH":"2026-03-27T20:00:01.999008","MEAN_MOTION":15.80080831,"ECCENTRICITY":0.0001064,"INCLINATION":53.159,"RA_OF_ASC_NODE":221.7037,"ARG_OF_PERICENTER":58.9045,"MEAN_ANOMALY":306.4943,"EPHEMERIS_TYPE":0,"CLASSIFICATION_TYPE":"U","NORAD_CAT_ID":68237,"ELEMENT_SET_NO":999,"REV_AT_EPOCH":283,"BSTAR":-0.011445,"MEAN_MOTION_DOT":-0.01900566,"MEAN_MOTION_DDOT":0},{"OBJECT_NAME":"STARLINK-37097","OBJECT_ID":"2026-054G","EPOCH":"2026-03-27T20:00:01.999008","MEAN_MOTION":15.80876674,"ECCENTRICITY":0.0001179,"INCLINATION":53.1585,"RA_OF_ASC_NODE":221.6945,"ARG_OF_PERICENTER":37.5362,"MEAN_ANOMALY":332.3831,"EPHEMERIS_TYPE":0,"CLASSIFICATION_TYPE":"U","NORAD_CAT_ID":68238,"ELEMENT_SET_NO":999,"REV_AT_EPOCH":283,"BSTAR":-8.1157e-5,"MEAN_MOTION_DOT":-0.00016688,"MEAN_MOTION_DDOT":0},{"OBJECT_NAME":"STARLINK-37096","OBJECT_ID":"2026-054H","EPOCH":"2026-03-27T20:00:01.999008","MEAN_MOTION":15.80902259,"ECCENTRICITY":9.35e-5,"INCLINATION":53.1587,"RA_OF_ASC_NODE":221.6768,"ARG_OF_PERICENTER":56.3573,"MEAN_ANOMALY":322.1107,"EPHEMERIS_TYPE":0,"CLASSIFICATION_TYPE":"U","NORAD_CAT_ID":68239,"ELEMENT_SET_NO":999,"REV_AT_EPOCH":283,"BSTAR":-0.00042189,"MEAN_MOTION_DOT":-0.00083279,"MEAN_MOTION_DDOT":0},{"OBJECT_NAME":"STARLINK-37092","OBJECT_ID":"2026-054J","EPOCH":"2026-03-27T20:00:01.999008","MEAN_MOTION":15.80859621,"ECCENTRICITY":7.81e-5,"INCLINATION":53.1589,"RA_OF_ASC_NODE":221.6856,"ARG_OF_PERICENTER":87.1152,"MEAN_ANOMALY":287.0898,"EPHEMERIS_TYPE":0,"CLASSIFICATION_TYPE":"U","NORAD_CAT_ID":68240,"ELEMENT_SET_NO":999,"REV_AT_EPOCH":283,"BSTAR":0.000162,"MEAN_MOTION_DOT":0.00031371,"MEAN_MOTION_DDOT":0},{"OBJECT_NAME":"STARLINK-37094","OBJECT_ID":"2026-054K","EPOCH":"2026-03-27T20:00:01.999008","MEAN_MOTION":15.80814564,"ECCENTRICITY":9.59e-5,"INCLINATION":53.1588,"RA_OF_ASC_NODE":221.668,"ARG_OF_PERICENTER":87.3104,"MEAN_ANOMALY":295.4629,"EPHEMERIS_TYPE":0,"CLASSIFICATION_TYPE":"U","NORAD_CAT_ID":68241,"ELEMENT_SET_NO":999,"REV_AT_EPOCH":282,"BSTAR":0.00061041,"MEAN_MOTION_DOT":0.00121151,"MEAN_MOTION_DDOT":0},{"OBJECT_NAME":"STARLINK-36356","OBJECT_ID":"2026-054L","EPOCH":"2026-03-27T20:00:01.999008","MEAN_MOTION":15.80877578,"ECCENTRICITY":9.06e-5,"INCLINATION":53.1589,"RA_OF_ASC_NODE":221.6589,"ARG_OF_PERICENTER":77.7393,"MEAN_ANOMALY":309.2903,"EPHEMERIS_TYPE":0,"CLASSIFICATION_TYPE":"U","NORAD_CAT_ID":68242,"ELEMENT_SET_NO":999,"REV_AT_EPOCH":287,"BSTAR":-0.00026362,"MEAN_MOTION_DOT":-0.00052423,"MEAN_MOTION_DDOT":0},{"OBJECT_NAME":"STARLINK-36345","OBJECT_ID":"2026-054M","EPOCH":"2026-03-27T20:00:01.999008","MEAN_MOTION":15.80482546,"ECCENTRICITY":8.82e-5,"INCLINATION":53.1589,"RA_OF_ASC_NODE":221.6503,"ARG_OF_PERICENTER":87.9897,"MEAN_ANOMALY":303.2404,"EPHEMERIS_TYPE":0,"CLASSIFICATION_TYPE":"U","NORAD_CAT_ID":68243,"ELEMENT_SET_NO":999,"REV_AT_EPOCH":287,"BSTAR":-0.011082,"MEAN_MOTION_DOT":-0.01878185,"MEAN_MOTION_DDOT":0},{"OBJECT_NAME":"STARLINK-36310","OBJECT_ID":"2026-054N","EPOCH":"2026-03-27T20:00:01.999008","MEAN_MOTION":15.80874851,"ECCENTRICITY":0.0001276,"INCLINATION":53.159,"RA_OF_ASC_NODE":221.6324,"ARG_OF_PERICENTER":86.7468,"MEAN_ANOMALY":313.1012,"EPHEMERIS_TYPE":0,"CLASSIFICATION_TYPE":"U","NORAD_CAT_ID":68244,"ELEMENT_SET_NO":999,"REV_AT_EPOCH":287,"BSTAR":-0.00031926,"MEAN_MOTION_DOT":-0.00063257,"MEAN_MOTION_DDOT":0},{"OBJECT_NAME":"STARLINK-36247","OBJECT_ID":"2026-054P","EPOCH":"2026-03-27T20:00:01.999008","MEAN_MOTION":15.80862642,"ECCENTRICITY":0.0001068,"INCLINATION":53.1593,"RA_OF_ASC_NODE":221.6416,"ARG_OF_PERICENTER":108.1879,"MEAN_ANOMALY":287.3721,"EPHEMERIS_TYPE":0,"CLASSIFICATION_TYPE":"U","NORAD_CAT_ID":68245,"ELEMENT_SET_NO":999,"REV_AT_EPOCH":287,"BSTAR":0.00012812,"MEAN_MOTION_DOT":0.00024648,"MEAN_MOTION_DDOT":0},{"OBJECT_NAME":"STARLINK-37043","OBJECT_ID":"2026-054Q","EPOCH":"2026-03-27T20:00:01.999008","MEAN_MOTION":15.80869686,"ECCENTRICITY":0.0001016,"INCLINATION":53.1592,"RA_OF_ASC_NODE":221.624,"ARG_OF_PERICENTER":65.0559,"MEAN_ANOMALY":339.0515,"EPHEMERIS_TYPE":0,"CLASSIFICATION_TYPE":"U","NORAD_CAT_ID":68246,"ELEMENT_SET_NO":999,"REV_AT_EPOCH":283,"BSTAR":-2.202e-5,"MEAN_MOTION_DOT":-5.041e-5,"MEAN_MOTION_DDOT":0},{"OBJECT_NAME":"STARLINK-37044","OBJECT_ID":"2026-054R","EPOCH":"2026-03-27T20:00:01.999008","MEAN_MOTION":15.80845934,"ECCENTRICITY":0.0001175,"INCLINATION":53.1592,"RA_OF_ASC_NODE":221.6146,"ARG_OF_PERICENTER":61.5932,"MEAN_ANOMALY":346.8019,"EPHEMERIS_TYPE":0,"CLASSIFICATION_TYPE":"U","NORAD_CAT_ID":68247,"ELEMENT_SET_NO":999,"REV_AT_EPOCH":283,"BSTAR":9.4699e-5,"MEAN_MOTION_DOT":0.00018007,"MEAN_MOTION_DDOT":0},{"OBJECT_NAME":"STARLINK-36997","OBJECT_ID":"2026-054S","EPOCH":"2026-03-27T20:00:01.999008","MEAN_MOTION":15.81207425,"ECCENTRICITY":0.0001385,"INCLINATION":53.1592,"RA_OF_ASC_NODE":221.6061,"ARG_OF_PERICENTER":74.2675,"MEAN_ANOMALY":338.3628,"EPHEMERIS_TYPE":0,"CLASSIFICATION_TYPE":"U","NORAD_CAT_ID":68248,"ELEMENT_SET_NO":999,"REV_AT_EPOCH":283,"BSTAR":-0.0092823,"MEAN_MOTION_DOT":-0.01623655,"MEAN_MOTION_DDOT":0},{"OBJECT_NAME":"STARLINK-37141","OBJECT_ID":"2026-054T","EPOCH":"2026-03-27T20:00:01.999008","MEAN_MOTION":15.80894916,"ECCENTRICITY":7.92e-5,"INCLINATION":53.1591,"RA_OF_ASC_NODE":221.5975,"ARG_OF_PERICENTER":50.6226,"MEAN_ANOMALY":6.2839,"EPHEMERIS_TYPE":0,"CLASSIFICATION_TYPE":"U","NORAD_CAT_ID":68249,"ELEMENT_SET_NO":999,"REV_AT_EPOCH":291,"BSTAR":-0.00025827,"MEAN_MOTION_DOT":-0.00051419,"MEAN_MOTION_DDOT":0},{"OBJECT_NAME":"STARLINK-37087","OBJECT_ID":"2026-054U","EPOCH":"2026-03-27T20:00:01.999008","MEAN_MOTION":15.80837117,"ECCENTRICITY":9.56e-5,"INCLINATION":53.1594,"RA_OF_ASC_NODE":221.5888,"ARG_OF_PERICENTER":99.2638,"MEAN_ANOMALY":321.9474,"EPHEMERIS_TYPE":0,"CLASSIFICATION_TYPE":"U","NORAD_CAT_ID":68250,"ELEMENT_SET_NO":999,"REV_AT_EPOCH":283,"BSTAR":0.00023277,"MEAN_MOTION_DOT":0.00045407,"MEAN_MOTION_DDOT":0},{"OBJECT_NAME":"STARLINK-36274","OBJECT_ID":"2026-054V","EPOCH":"2026-03-27T20:00:01.999008","MEAN_MOTION":15.80851581,"ECCENTRICITY":0.0001012,"INCLINATION":53.1591,"RA_OF_ASC_NODE":221.5799,"ARG_OF_PERICENTER":82.8504,"MEAN_ANOMALY":342.6269,"EPHEMERIS_TYPE":0,"CLASSIFICATION_TYPE":"U","NORAD_CAT_ID":68251,"ELEMENT_SET_NO":999,"REV_AT_EPOCH":287,"BSTAR":6.249e-5,"MEAN_MOTION_DOT":0.00011639,"MEAN_MOTION_DDOT":0}]
